{"fetched_at":"2026-07-16T17:46:05.603Z","source":"https://celestrak.org/NORAD/elements/gp.php?GROUP=oneweb&FORMAT=JSON","constellation":"oneweb","records":[{"OBJECT_NAME":"ONEWEB-0356","OBJECT_ID":"2021-090E","EPOCH":"2026-07-16T03:58:09.213888","CLASSIFICATION_TYPE":"U","MEAN_MOTION":13.20770331,"ECCENTRICITY":0.00012838,"INCLINATION":87.9184,"RA_OF_ASC_NODE":268.6608,"ARG_OF_PERICENTER":96.0884,"MEAN_ANOMALY":264.0396,"EPHEMERIS_TYPE":0,"NORAD_CAT_ID":49283,"ELEMENT_SET_NO":999,"REV_AT_EPOCH":23365,"BSTAR":0.00011651717,"MEAN_MOTION_DOT":6e-7,"MEAN_MOTION_DDOT":0},{"OBJECT_NAME":"ONEWEB-0358","OBJECT_ID":"2021-090F","EPOCH":"2026-07-16T04:50:15.207360","CLASSIFICATION_TYPE":"U","MEAN_MOTION":13.20773323,"ECCENTRICITY":0.00020132,"INCLINATION":87.9188,"RA_OF_ASC_NODE":268.6602,"ARG_OF_PERICENTER":96.1205,"MEAN_ANOMALY":264.0158,"EPHEMERIS_TYPE":0,"NORAD_CAT_ID":49284,"ELEMENT_SET_NO":999,"REV_AT_EPOCH":23438,"BSTAR":-0.001112197,"MEAN_MOTION_DOT":-0.00000439,"MEAN_MOTION_DDOT":0},{"OBJECT_NAME":"ONEWEB-0359","OBJECT_ID":"2021-090G","EPOCH":"2026-07-16T04:36:55.811232","CLASSIFICATION_TYPE":"U","MEAN_MOTION":13.20770593,"ECCENTRICITY":0.00020934,"INCLINATION":87.9189,"RA_OF_ASC_NODE":268.6551,"ARG_OF_PERICENTER":90.7954,"MEAN_ANOMALY":269.3419,"EPHEMERIS_TYPE":0,"NORAD_CAT_ID":49285,"ELEMENT_SET_NO":999,"REV_AT_EPOCH":23436,"BSTAR":0.000088548319,"MEAN_MOTION_DOT":4.9e-7,"MEAN_MOTION_DDOT":0},{"OBJECT_NAME":"ONEWEB-0360","OBJECT_ID":"2021-090H","EPOCH":"2026-07-16T04:22:24.711744","CLASSIFICATION_TYPE":"U","MEAN_MOTION":13.20771131,"ECCENTRICITY":0.0002176,"INCLINATION":87.9187,"RA_OF_ASC_NODE":268.6631,"ARG_OF_PERICENTER":98.035,"MEAN_ANOMALY":262.103,"EPHEMERIS_TYPE":0,"NORAD_CAT_ID":49286,"ELEMENT_SET_NO":999,"REV_AT_EPOCH":23367,"BSTAR":0.000090431508,"MEAN_MOTION_DOT":5e-7,"MEAN_MOTION_DDOT":0},{"OBJECT_NAME":"ONEWEB-0361","OBJECT_ID":"2021-090J","EPOCH":"2026-07-16T03:55:43.140000","CLASSIFICATION_TYPE":"U","MEAN_MOTION":13.20772403,"ECCENTRICITY":0.00020311,"INCLINATION":87.9186,"RA_OF_ASC_NODE":268.6656,"ARG_OF_PERICENTER":95.1397,"MEAN_ANOMALY":264.9968,"EPHEMERIS_TYPE":0,"NORAD_CAT_ID":49287,"ELEMENT_SET_NO":999,"REV_AT_EPOCH":23412,"BSTAR":0.00021306264,"MEAN_MOTION_DOT":0.000001,"MEAN_MOTION_DDOT":0},{"OBJECT_NAME":"ONEWEB-0362","OBJECT_ID":"2021-090K","EPOCH":"2026-07-15T20:03:48.559680","CLASSIFICATION_TYPE":"U","MEAN_MOTION":13.19726297,"ECCENTRICITY":0.00022893,"INCLINATION":87.9187,"RA_OF_ASC_NODE":299.2729,"ARG_OF_PERICENTER":101.5001,"MEAN_ANOMALY":258.6389,"EPHEMERIS_TYPE":0,"NORAD_CAT_ID":49288,"ELEMENT_SET_NO":999,"REV_AT_EPOCH":23069,"BSTAR":0.000027817819,"MEAN_MOTION_DOT":2.4e-7,"MEAN_MOTION_DDOT":0},{"OBJECT_NAME":"ONEWEB-0363","OBJECT_ID":"2021-090L","EPOCH":"2026-07-16T04:17:32.909568","CLASSIFICATION_TYPE":"U","MEAN_MOTION":13.20772052,"ECCENTRICITY":0.00017409,"INCLINATION":87.9187,"RA_OF_ASC_NODE":268.6625,"ARG_OF_PERICENTER":94.8605,"MEAN_ANOMALY":265.2727,"EPHEMERIS_TYPE":0,"NORAD_CAT_ID":49289,"ELEMENT_SET_NO":999,"REV_AT_EPOCH":23413,"BSTAR":-0.00001629958,"MEAN_MOTION_DOT":6e-8,"MEAN_MOTION_DDOT":0},{"OBJECT_NAME":"ONEWEB-0364","OBJECT_ID":"2021-090M","EPOCH":"2026-07-16T05:13:17.933952","CLASSIFICATION_TYPE":"U","MEAN_MOTION":13.20770075,"ECCENTRICITY":0.00021047,"INCLINATION":87.9183,"RA_OF_ASC_NODE":268.6621,"ARG_OF_PERICENTER":98.6303,"MEAN_ANOMALY":261.5069,"EPHEMERIS_TYPE":0,"NORAD_CAT_ID":49290,"ELEMENT_SET_NO":999,"REV_AT_EPOCH":23527,"BSTAR":0.00028925719,"MEAN_MOTION_DOT":0.00000131,"MEAN_MOTION_DDOT":0},{"OBJECT_NAME":"ONEWEB-0365","OBJECT_ID":"2021-090N","EPOCH":"2026-07-16T05:23:20.013216","CLASSIFICATION_TYPE":"U","MEAN_MOTION":13.19726684,"ECCENTRICITY":0.00020794,"INCLINATION":87.9193,"RA_OF_ASC_NODE":299.1863,"ARG_OF_PERICENTER":102.1031,"MEAN_ANOMALY":258.0334,"EPHEMERIS_TYPE":0,"NORAD_CAT_ID":49291,"ELEMENT_SET_NO":999,"REV_AT_EPOCH":23025,"BSTAR":0.000097979138,"MEAN_MOTION_DOT":5.2e-7,"MEAN_MOTION_DDOT":0},{"OBJECT_NAME":"ONEWEB-0366","OBJECT_ID":"2021-090P","EPOCH":"2026-07-16T05:00:07.451712","CLASSIFICATION_TYPE":"U","MEAN_MOTION":13.14502487,"ECCENTRICITY":0.00020184,"INCLINATION":87.8967,"RA_OF_ASC_NODE":283.9244,"ARG_OF_PERICENTER":98.2506,"MEAN_ANOMALY":261.8853,"EPHEMERIS_TYPE":0,"NORAD_CAT_ID":49292,"ELEMENT_SET_NO":999,"REV_AT_EPOCH":23137,"BSTAR":-0.000044314282,"MEAN_MOTION_DOT":-4e-8,"MEAN_MOTION_DDOT":0},{"OBJECT_NAME":"ONEWEB-0367","OBJECT_ID":"2021-090Q","EPOCH":"2026-07-16T04:16:19.619040","CLASSIFICATION_TYPE":"U","MEAN_MOTION":13.20773372,"ECCENTRICITY":0.00022393,"INCLINATION":87.9185,"RA_OF_ASC_NODE":268.6644,"ARG_OF_PERICENTER":102.135,"MEAN_ANOMALY":258.0035,"EPHEMERIS_TYPE":0,"NORAD_CAT_ID":49293,"ELEMENT_SET_NO":999,"REV_AT_EPOCH":23365,"BSTAR":-0.000034981536,"MEAN_MOTION_DOT":-1e-8,"MEAN_MOTION_DDOT":0},{"OBJECT_NAME":"ONEWEB-0368","OBJECT_ID":"2021-090R","EPOCH":"2026-07-16T05:27:51.830208","CLASSIFICATION_TYPE":"U","MEAN_MOTION":13.20771686,"ECCENTRICITY":0.00016657,"INCLINATION":87.9173,"RA_OF_ASC_NODE":268.6615,"ARG_OF_PERICENTER":116.8877,"MEAN_ANOMALY":243.2427,"EPHEMERIS_TYPE":0,"NORAD_CAT_ID":49294,"ELEMENT_SET_NO":999,"REV_AT_EPOCH":23481,"BSTAR":0.000016842715,"MEAN_MOTION_DOT":2e-7,"MEAN_MOTION_DDOT":0},{"OBJECT_NAME":"ONEWEB-0369","OBJECT_ID":"2021-090S","EPOCH":"2026-07-16T05:16:30.561888","CLASSIFICATION_TYPE":"U","MEAN_MOTION":13.1972718,"ECCENTRICITY":0.00020174,"INCLINATION":87.9187,"RA_OF_ASC_NODE":299.1922,"ARG_OF_PERICENTER":103.8186,"MEAN_ANOMALY":256.3171,"EPHEMERIS_TYPE":0,"NORAD_CAT_ID":49295,"ELEMENT_SET_NO":999,"REV_AT_EPOCH":23024,"BSTAR":0.00018274258,"MEAN_MOTION_DOT":8.6e-7,"MEAN_MOTION_DDOT":0},{"OBJECT_NAME":"ONEWEB-0370","OBJECT_ID":"2021-090T","EPOCH":"2026-07-16T04:29:40.258464","CLASSIFICATION_TYPE":"U","MEAN_MOTION":13.20772416,"ECCENTRICITY":0.00023242,"INCLINATION":87.9185,"RA_OF_ASC_NODE":268.6615,"ARG_OF_PERICENTER":94.8473,"MEAN_ANOMALY":265.2926,"EPHEMERIS_TYPE":0,"NORAD_CAT_ID":49296,"ELEMENT_SET_NO":999,"REV_AT_EPOCH":23369,"BSTAR":0.000055113382,"MEAN_MOTION_DOT":3.5e-7,"MEAN_MOTION_DDOT":0},{"OBJECT_NAME":"ONEWEB-0371","OBJECT_ID":"2021-090U","EPOCH":"2026-07-16T05:27:52.909344","CLASSIFICATION_TYPE":"U","MEAN_MOTION":13.19725817,"ECCENTRICITY":0.00021168,"INCLINATION":87.9192,"RA_OF_ASC_NODE":299.1854,"ARG_OF_PERICENTER":101.272,"MEAN_ANOMALY":258.8651,"EPHEMERIS_TYPE":0,"NORAD_CAT_ID":49297,"ELEMENT_SET_NO":999,"REV_AT_EPOCH":23028,"BSTAR":0.00017904617,"MEAN_MOTION_DOT":8.5e-7,"MEAN_MOTION_DDOT":0},{"OBJECT_NAME":"ONEWEB-0372","OBJECT_ID":"2021-090V","EPOCH":"2026-07-16T04:14:54.757824","CLASSIFICATION_TYPE":"U","MEAN_MOTION":13.20769727,"ECCENTRICITY":0.00021021,"INCLINATION":87.9187,"RA_OF_ASC_NODE":268.6654,"ARG_OF_PERICENTER":100.2407,"MEAN_ANOMALY":259.8964,"EPHEMERIS_TYPE":0,"NORAD_CAT_ID":49298,"ELEMENT_SET_NO":999,"REV_AT_EPOCH":23366,"BSTAR":0.000071727915,"MEAN_MOTION_DOT":4.2e-7,"MEAN_MOTION_DDOT":0},{"OBJECT_NAME":"ONEWEB-0373","OBJECT_ID":"2021-090W","EPOCH":"2026-07-16T04:51:28.192896","CLASSIFICATION_TYPE":"U","MEAN_MOTION":13.20773385,"ECCENTRICITY":0.00020855,"INCLINATION":87.9185,"RA_OF_ASC_NODE":268.6598,"ARG_OF_PERICENTER":96.0589,"MEAN_ANOMALY":264.0782,"EPHEMERIS_TYPE":0,"NORAD_CAT_ID":49299,"ELEMENT_SET_NO":999,"REV_AT_EPOCH":23485,"BSTAR":0.00017441326,"MEAN_MOTION_DOT":8.4e-7,"MEAN_MOTION_DDOT":0},{"OBJECT_NAME":"ONEWEB-0374","OBJECT_ID":"2021-090X","EPOCH":"2026-07-16T04:41:50.135424","CLASSIFICATION_TYPE":"U","MEAN_MOTION":13.14503287,"ECCENTRICITY":0.00015602,"INCLINATION":87.897,"RA_OF_ASC_NODE":283.9187,"ARG_OF_PERICENTER":88.7448,"MEAN_ANOMALY":271.386,"EPHEMERIS_TYPE":0,"NORAD_CAT_ID":49300,"ELEMENT_SET_NO":999,"REV_AT_EPOCH":23137,"BSTAR":-0.00068020625,"MEAN_MOTION_DOT":-0.00000239,"MEAN_MOTION_DDOT":0},{"OBJECT_NAME":"ONEWEB-0375","OBJECT_ID":"2021-090Y","EPOCH":"2026-07-16T04:34:30.278208","CLASSIFICATION_TYPE":"U","MEAN_MOTION":13.20773208,"ECCENTRICITY":0.00016572,"INCLINATION":87.9186,"RA_OF_ASC_NODE":268.6545,"ARG_OF_PERICENTER":87.0209,"MEAN_ANOMALY":273.1114,"EPHEMERIS_TYPE":0,"NORAD_CAT_ID":49301,"ELEMENT_SET_NO":999,"REV_AT_EPOCH":23435,"BSTAR":0.00010366393,"MEAN_MOTION_DOT":5.5e-7,"MEAN_MOTION_DDOT":0},{"OBJECT_NAME":"ONEWEB-0376","OBJECT_ID":"2021-090Z","EPOCH":"2026-07-16T05:25:35.670720","CLASSIFICATION_TYPE":"U","MEAN_MOTION":13.19726927,"ECCENTRICITY":0.00020872,"INCLINATION":87.9193,"RA_OF_ASC_NODE":299.1855,"ARG_OF_PERICENTER":105.3164,"MEAN_ANOMALY":254.82,"EPHEMERIS_TYPE":0,"NORAD_CAT_ID":49302,"ELEMENT_SET_NO":999,"REV_AT_EPOCH":23028,"BSTAR":0.00017258866,"MEAN_MOTION_DOT":8.2e-7,"MEAN_MOTION_DDOT":0},{"OBJECT_NAME":"ONEWEB-0377","OBJECT_ID":"2021-090AA","EPOCH":"2026-07-16T04:15:17.826624","CLASSIFICATION_TYPE":"U","MEAN_MOTION":13.20781041,"ECCENTRICITY":0.00019825,"INCLINATION":87.9184,"RA_OF_ASC_NODE":268.6593,"ARG_OF_PERICENTER":94.6968,"MEAN_ANOMALY":265.4391,"EPHEMERIS_TYPE":0,"NORAD_CAT_ID":49303,"ELEMENT_SET_NO":999,"REV_AT_EPOCH":23434,"BSTAR":0.0020680034,"MEAN_MOTION_DOT":0.00000854,"MEAN_MOTION_DDOT":0},{"OBJECT_NAME":"ONEWEB-0378","OBJECT_ID":"2021-090AB","EPOCH":"2026-07-16T04:44:25.374624","CLASSIFICATION_TYPE":"U","MEAN_MOTION":13.20772079,"ECCENTRICITY":0.00019124,"INCLINATION":87.9181,"RA_OF_ASC_NODE":268.6591,"ARG_OF_PERICENTER":97.7761,"MEAN_ANOMALY":262.3589,"EPHEMERIS_TYPE":0,"NORAD_CAT_ID":49304,"ELEMENT_SET_NO":999,"REV_AT_EPOCH":23361,"BSTAR":0.0000824925,"MEAN_MOTION_DOT":4.7e-7,"MEAN_MOTION_DDOT":0},{"OBJECT_NAME":"ONEWEB-0379","OBJECT_ID":"2021-090AC","EPOCH":"2026-07-16T04:34:59.657664","CLASSIFICATION_TYPE":"U","MEAN_MOTION":13.14502568,"ECCENTRICITY":0.00019108,"INCLINATION":87.8969,"RA_OF_ASC_NODE":283.9298,"ARG_OF_PERICENTER":99.1692,"MEAN_ANOMALY":260.9654,"EPHEMERIS_TYPE":0,"NORAD_CAT_ID":49305,"ELEMENT_SET_NO":999,"REV_AT_EPOCH":23137,"BSTAR":-0.00055763169,"MEAN_MOTION_DOT":-0.00000194,"MEAN_MOTION_DDOT":0}]}
